{
  "type": "FeatureCollection",
  "features": [
    {
      "type": "Feature",
      "geometry": {
        "type": "Polygon",
        "coordinates": [
          [
            [
              -8.632466918677768,
              41.17529023268689
            ],
            [
              -8.633153129390749,
              41.17510837154479
            ],
            [
              -8.632982838034193,
              41.17468344119212
            ],
            [
              -8.632660184937462,
              41.17404149153066
            ],
            [
              -8.632341796116044,
              41.17385826497785
            ],
            [
              -8.628140490813042,
              41.17477593044666
            ],
            [
              -8.628498434274903,
              41.17584544390211
            ],
            [
              -8.632466918677768,
              41.17529023268689
            ]
          ]
        ]
      },
      "properties": {
        "rank": 1,
        "tipo": "Estrategia de expansao (CMP)",
        "nome": "Parque da Prelada",
        "area_ha": 5.53,
        "pop_delta": 2170,
        "pct_antes": 55.8,
        "pct_depois": 56.7,
        "lat": 41.1743,
        "lon": -8.6296,
        "source": "manual",
        "label_lat": 41.174942,
        "label_lon": -8.630641
      }
    },
    {
      "type": "Feature",
      "geometry": {
        "type": "MultiPolygon",
        "coordinates": [
          [
            [
              [
                -8.593281249999999,
                41.140065019505855
              ],
              [
                -8.593593749999998,
                41.139986996098834
              ],
              [
                -8.593593749999998,
                41.140065019505855
              ],
              [
                -8.593281249999999,
                41.140065019505855
              ]
            ]
          ],
          [
            [
              [
                -8.592812499999999,
                41.140065019505855
              ],
              [
                -8.592890624999999,
                41.139986996098834
              ],
              [
                -8.592890624999999,
                41.140065019505855
              ],
              [
                -8.592812499999999,
                41.140065019505855
              ]
            ]
          ],
          [
            [
              [
                -8.59078125,
                41.140221066319896
              ],
              [
                -8.590937499999999,
                41.140143042912875
              ],
              [
                -8.590937499999999,
                41.140221066319896
              ],
              [
                -8.59078125,
                41.140221066319896
              ]
            ]
          ],
          [
            [
              [
                -8.596640625,
                41.140455136540965
              ],
              [
                -8.5965625,
                41.140533159947985
              ],
              [
                -8.5965625,
                41.140455136540965
              ],
              [
                -8.596640625,
                41.140455136540965
              ]
            ]
          ],
          [
            [
              [
                -8.594765624999999,
                41.139908972691806
              ],
              [
                -8.597499999999998,
                41.140923276983095
              ],
              [
                -8.597578125,
                41.14139141742523
              ],
              [
                -8.5978125,
                41.141001300390116
              ],
              [
                -8.5978125,
                41.141235370611184
              ],
              [
                -8.59984375,
                41.142015604681404
              ],
              [
                -8.601796875,
                41.142015604681404
              ],
              [
                -8.601875,
                41.14263979193758
              ],
              [
                -8.599921875,
                41.14248374512354
              ],
              [
                -8.5996875,
                41.142405721716514
              ],
              [
                -8.59984375,
                41.14217165149545
              ],
              [
                -8.599218749999999,
                41.14224967490247
              ],
              [
                -8.599218749999999,
                41.142015604681404
              ],
              [
                -8.596328125,
                41.141001300390116
              ],
              [
                -8.59578125,
                41.14107932379714
              ],
              [
                -8.595390624999999,
                41.140845253576074
              ],
              [
                -8.593828125,
                41.140923276983095
              ],
              [
                -8.593515624999998,
                41.14185955786736
              ],
              [
                -8.591484374999999,
                41.142327698309494
              ],
              [
                -8.591171874999999,
                41.141937581274384
              ],
              [
                -8.591796875,
                41.141547464239274
              ],
              [
                -8.591640624999998,
                41.14139141742523
              ],
              [
                -8.587890625,
                41.14388816644993
              ],
              [
                -8.59078125,
                41.141625487646294
              ],
              [
                -8.59046875,
                41.140299089726916
              ],
              [
                -8.591562499999998,
                41.140143042912875
              ],
              [
                -8.591640624999998,
                41.140455136540965
              ],
              [
                -8.592109375,
                41.140455136540965
              ],
              [
                -8.592265625,
                41.140065019505855
              ],
              [
                -8.592812499999999,
                41.140065019505855
              ],
              [
                -8.592812499999999,
                41.140143042912875
              ],
              [
                -8.593203124999999,
                41.140065019505855
              ],
              [
                -8.593593749999998,
                41.140143042912875
              ],
              [
                -8.594765624999999,
                41.139908972691806
              ]
            ],
            [
              [
                -8.59609375,
                41.140923276983095
              ],
              [
                -8.596171875,
                41.141001300390116
              ],
              [
                -8.596171875,
                41.140923276983095
              ],
              [
                -8.59609375,
                41.140923276983095
              ]
            ],
            [
              [
                -8.591875,
                41.140845253576074
              ],
              [
                -8.59203125,
                41.140923276983095
              ],
              [
                -8.59203125,
                41.140845253576074
              ],
              [
                -8.591875,
                41.140845253576074
              ]
            ]
          ]
        ]
      },
      "properties": {
        "rank": 2,
        "tipo": "Estrategia de expansao (CMP)",
        "nome": "Parque das Fontainhas/Carquejeiras",
        "area_ha": 10.88,
        "pop_delta": 43,
        "pct_antes": 56.7,
        "pct_depois": 56.7,
        "lat": 41.1413,
        "lon": -8.5941,
        "source": "manual"
      }
    },
    {
      "type": "Feature",
      "geometry": {
        "type": "MultiPolygon",
        "coordinates": [
          [
            [
              [
                -8.63953125,
                41.17533159947984
              ],
              [
                -8.639687499999999,
                41.17525357607282
              ],
              [
                -8.639687499999999,
                41.17533159947984
              ],
              [
                -8.63953125,
                41.17533159947984
              ]
            ]
          ],
          [
            [
              [
                -8.63953125,
                41.17533159947984
              ],
              [
                -8.639921874999999,
                41.1765799739922
              ],
              [
                -8.639687499999999,
                41.17697009102731
              ],
              [
                -8.639140625,
                41.17564369310793
              ],
              [
                -8.63921875,
                41.17533159947984
              ],
              [
                -8.63953125,
                41.17533159947984
              ]
            ]
          ]
        ]
      },
      "properties": {
        "rank": 3,
        "tipo": "Estrategia de expansao (CMP)",
        "nome": "Ampliação do Parque de Requesende",
        "area_ha": 0.52,
        "pop_delta": 0,
        "pct_antes": 56.7,
        "pct_depois": 56.7,
        "lat": 41.1761,
        "lon": -8.6395,
        "source": "manual"
      }
    },
    {
      "type": "Feature",
      "geometry": {
        "type": "MultiPolygon",
        "coordinates": [
          [
            [
              [
                -8.581874999999998,
                41.14685305591678
              ],
              [
                -8.581953124999998,
                41.1469310793238
              ],
              [
                -8.581874999999998,
                41.1469310793238
              ],
              [
                -8.581874999999998,
                41.14685305591678
              ]
            ]
          ],
          [
            [
              [
                -8.579453124999999,
                41.15020806241873
              ],
              [
                -8.581171874999999,
                41.14911573472042
              ],
              [
                -8.581562499999999,
                41.14849154746424
              ],
              [
                -8.581249999999999,
                41.14560468140442
              ],
              [
                -8.581328124999999,
                41.14498049414824
              ],
              [
                -8.581718749999999,
                41.14544863459038
              ],
              [
                -8.581874999999998,
                41.14669700910273
              ],
              [
                -8.581562499999999,
                41.14708712613784
              ],
              [
                -8.582109375,
                41.14716514954486
              ],
              [
                -8.582734375,
                41.14880364109233
              ],
              [
                -8.582265625,
                41.14927178153446
              ],
              [
                -8.581328124999999,
                41.14942782834851
              ],
              [
                -8.581328124999999,
                41.15013003901171
              ],
              [
                -8.579999999999998,
                41.15005201560468
              ],
              [
                -8.579999999999998,
                41.150832249674906
              ],
              [
                -8.581328124999999,
                41.151534460338105
              ],
              [
                -8.5809375,
                41.152002600780236
              ],
              [
                -8.581093749999999,
                41.152236671001305
              ],
              [
                -8.5803125,
                41.15184655396619
              ],
              [
                -8.579453124999999,
                41.150832249674906
              ],
              [
                -8.579453124999999,
                41.15020806241873
              ]
            ]
          ],
          [
            [
              [
                -8.579765624999999,
                41.1497399219766
              ],
              [
                -8.579218749999999,
                41.15020806241873
              ],
              [
                -8.579140624999999,
                41.14989596879064
              ],
              [
                -8.579765624999999,
                41.1497399219766
              ]
            ]
          ]
        ]
      },
      "properties": {
        "rank": 4,
        "tipo": "Estrategia de expansao (CMP)",
        "nome": "Parque de Noeda",
        "area_ha": 5.16,
        "pop_delta": 400,
        "pct_antes": 56.7,
        "pct_depois": 56.9,
        "lat": 41.1492,
        "lon": -8.5812,
        "source": "manual"
      }
    },
    {
      "type": "Feature",
      "geometry": {
        "type": "Polygon",
        "coordinates": [
          [
            [
              -8.579687499999999,
              41.176814044213266
            ],
            [
              -8.580625,
              41.17618985695709
            ],
            [
              -8.575781249999999,
              41.17548764629389
            ],
            [
              -8.575703124999999,
              41.17509752925878
            ],
            [
              -8.574765625,
              41.17501950585176
            ],
            [
              -8.573906249999999,
              41.17431729518856
            ],
            [
              -8.57265625,
              41.17494148244473
            ],
            [
              -8.575234374999999,
              41.17642392717815
            ],
            [
              -8.575937499999998,
              41.17618985695709
            ],
            [
              -8.579687499999999,
              41.176814044213266
            ]
          ],
          [
            [
              -8.575703124999999,
              41.17564369310793
            ],
            [
              -8.575546874999999,
              41.17595578673602
            ],
            [
              -8.575546874999999,
              41.17564369310793
            ],
            [
              -8.575703124999999,
              41.17564369310793
            ]
          ],
          [
            [
              -8.575468749999999,
              41.17548764629389
            ],
            [
              -8.575390624999999,
              41.17564369310793
            ],
            [
              -8.575312499999999,
              41.17548764629389
            ],
            [
              -8.575468749999999,
              41.17548764629389
            ]
          ]
        ]
      },
      "properties": {
        "rank": 5,
        "tipo": "Estrategia de expansao (CMP)",
        "nome": "Parque de Contumil",
        "area_ha": 6.35,
        "pop_delta": 2080,
        "pct_antes": 56.9,
        "pct_depois": 57.8,
        "lat": 41.1758,
        "lon": -8.5762,
        "source": "manual"
      }
    },
    {
      "type": "Feature",
      "geometry": {
        "type": "MultiPolygon",
        "coordinates": [
          [
            [
              [
                -8.670625,
                41.15988296488947
              ],
              [
                -8.669687499999998,
                41.15949284785436
              ],
              [
                -8.669531249999999,
                41.15863459037711
              ],
              [
                -8.67046875,
                41.15871261378413
              ],
              [
                -8.670390625,
                41.15832249674902
              ],
              [
                -8.671015624999999,
                41.15808842652796
              ],
              [
                -8.671562499999999,
                41.15879063719116
              ],
              [
                -8.672421875,
                41.15863459037711
              ],
              [
                -8.673437499999999,
                41.15793237971391
              ],
              [
                -8.67375,
                41.158244473342
              ],
              [
                -8.674609375,
                41.15785435630689
              ],
              [
                -8.675156249999999,
                41.15832249674902
              ],
              [
                -8.67625,
                41.15808842652796
              ],
              [
                -8.6759375,
                41.15886866059818
              ],
              [
                -8.674296875,
                41.15863459037711
              ],
              [
                -8.674140625,
                41.15832249674902
              ],
              [
                -8.673046874999999,
                41.15847854356307
              ],
              [
                -8.672265625,
                41.16058517555267
              ],
              [
                -8.671640624999998,
                41.16027308192458
              ],
              [
                -8.671875,
                41.15949284785436
              ],
              [
                -8.670625,
                41.15988296488947
              ]
            ]
          ],
          [
            [
              [
                -8.670625,
                41.15996098829649
              ],
              [
                -8.671562499999999,
                41.16042912873862
              ],
              [
                -8.671640624999998,
                41.16058517555267
              ],
              [
                -8.671328124999999,
                41.16081924577373
              ],
              [
                -8.67046875,
                41.16042912873862
              ],
              [
                -8.670625,
                41.15996098829649
              ]
            ]
          ],
          [
            [
              [
                -8.672109375,
                41.16058517555267
              ],
              [
                -8.6721875,
                41.16066319895969
              ],
              [
                -8.672109375,
                41.16066319895969
              ],
              [
                -8.672109375,
                41.16058517555267
              ]
            ]
          ],
          [
            [
              [
                -8.672109375,
                41.16066319895969
              ],
              [
                -8.671875,
                41.16081924577373
              ],
              [
                -8.671875,
                41.16066319895969
              ],
              [
                -8.672109375,
                41.16066319895969
              ]
            ]
          ]
        ]
      },
      "properties": {
        "rank": 6,
        "tipo": "Estrategia de expansao (CMP)",
        "nome": "Parque da Ervilha",
        "area_ha": 6.01,
        "pop_delta": 2331,
        "pct_antes": 57.8,
        "pct_depois": 58.7,
        "lat": 41.1591,
        "lon": -8.6723,
        "source": "manual"
      }
    },
    {
      "type": "Feature",
      "geometry": {
        "type": "Polygon",
        "coordinates": [
          [
            [
              -8.585859374999998,
              41.166514954486345
            ],
            [
              -8.585546874999999,
              41.16628088426528
            ],
            [
              -8.585859374999998,
              41.165734720416125
            ],
            [
              -8.585781249999998,
              41.165032509752926
            ],
            [
              -8.584375,
              41.164642392717816
            ],
            [
              -8.582890625,
              41.16518855656697
            ],
            [
              -8.583593749999999,
              41.166202860858256
            ],
            [
              -8.585859374999998,
              41.166514954486345
            ]
          ],
          [
            [
              -8.585624999999999,
              41.16589076723017
            ],
            [
              -8.585546874999999,
              41.165968790637194
            ],
            [
              -8.585546874999999,
              41.16589076723017
            ],
            [
              -8.585624999999999,
              41.16589076723017
            ]
          ]
        ]
      },
      "properties": {
        "rank": 7,
        "tipo": "Estrategia de expansao (CMP)",
        "nome": "Parque das Antas",
        "area_ha": 3.57,
        "pop_delta": 2567,
        "pct_antes": 58.7,
        "pct_depois": 59.8,
        "lat": 41.1656,
        "lon": -8.5846,
        "source": "manual"
      }
    },
    {
      "type": "Feature",
      "geometry": {
        "type": "Polygon",
        "coordinates": [
          [
            [
              -8.659497167922684,
              41.16657173520476
            ],
            [
              -8.657692530974245,
              41.16668462499361
            ],
            [
              -8.657501552891178,
              41.16709355421656
            ],
            [
              -8.656908371505947,
              41.16697618214083
            ],
            [
              -8.65587620507593,
              41.1673684806849
            ],
            [
              -8.656746574324414,
              41.16750321362596
            ],
            [
              -8.6575884558217,
              41.16713893707485
            ],
            [
              -8.658043521650889,
              41.16724550222997
            ],
            [
              -8.65818398055213,
              41.16760735627515
            ],
            [
              -8.657310275719807,
              41.16870153972139
            ],
            [
              -8.656310045496419,
              41.16831102503755
            ],
            [
              -8.656160238316268,
              41.16873159971113
            ],
            [
              -8.657364471802708,
              41.16910354358907
            ],
            [
              -8.659497167922684,
              41.16657173520476
            ]
          ]
        ]
      },
      "properties": {
        "rank": 8,
        "tipo": "Estrategia de expansao (CMP)",
        "nome": "Parque Desportivo de Ramalde",
        "area_ha": 2.47,
        "pop_delta": 4100,
        "pct_antes": 59.8,
        "pct_depois": 61.5,
        "lat": 41.1682,
        "lon": -8.6571,
        "source": "manual",
        "label_lat": 41.167959,
        "label_lon": -8.658116
      }
    },
    {
      "type": "Feature",
      "geometry": {
        "type": "Polygon",
        "coordinates": [
          [
            [
              -8.57234375,
              41.15715214564369
            ],
            [
              -8.572421875,
              41.1568400520156
            ],
            [
              -8.57234375,
              41.1568400520156
            ],
            [
              -8.57234375,
              41.15715214564369
            ]
          ]
        ]
      },
      "properties": {
        "rank": 9,
        "tipo": "Estrategia de expansao (CMP)",
        "nome": "Parque de Cartes",
        "area_ha": 0.02,
        "pop_delta": 0,
        "pct_antes": 61.5,
        "pct_depois": 61.5,
        "lat": 41.157,
        "lon": -8.5724,
        "source": "manual"
      }
    },
    {
      "type": "Feature",
      "geometry": {
        "type": "MultiPolygon",
        "coordinates": [
          [
            [
              [
                -8.615625,
                41.15707412223667
              ],
              [
                -8.615703125,
                41.156918075422624
              ],
              [
                -8.615703125,
                41.15707412223667
              ],
              [
                -8.615625,
                41.15707412223667
              ]
            ]
          ],
          [
            [
              [
                -8.615625,
                41.15707412223667
              ],
              [
                -8.614921874999999,
                41.15879063719116
              ],
              [
                -8.614687499999999,
                41.15879063719116
              ],
              [
                -8.614843749999999,
                41.15801040312093
              ],
              [
                -8.615546875,
                41.15707412223667
              ],
              [
                -8.615625,
                41.15707412223667
              ]
            ]
          ]
        ]
      },
      "properties": {
        "rank": 10,
        "tipo": "Estrategia de expansao (CMP)",
        "nome": "Parque Urbano da Lapa",
        "area_ha": 0.43,
        "pop_delta": 11,
        "pct_antes": 61.5,
        "pct_depois": 61.5,
        "lat": 41.158,
        "lon": -8.6152,
        "source": "manual"
      }
    },
    {
      "type": "Feature",
      "geometry": {
        "type": "Polygon",
        "coordinates": [
          [
            [
              -8.667656249999999,
              41.17455136540962
            ],
            [
              -8.668203125,
              41.17369310793238
            ],
            [
              -8.669921875,
              41.17439531859558
            ],
            [
              -8.670937499999999,
              41.17431729518856
            ],
            [
              -8.669687499999998,
              41.17400520156047
            ],
            [
              -8.669609374999999,
              41.17291287386216
            ],
            [
              -8.670546875,
              41.17221066319896
            ],
            [
              -8.670078125,
              41.17127438231469
            ],
            [
              -8.669687499999998,
              41.17150845253576
            ],
            [
              -8.669765625,
              41.17205461638491
            ],
            [
              -8.66859375,
              41.17213263979194
            ],
            [
              -8.668359375,
              41.17338101430429
            ],
            [
              -8.667656249999999,
              41.17455136540962
            ]
          ]
        ]
      },
      "properties": {
        "rank": 11,
        "tipo": "Estrategia de expansao (CMP)",
        "nome": "Parque Urbano de Aldoar",
        "area_ha": 3.19,
        "pop_delta": 2221,
        "pct_antes": 61.5,
        "pct_depois": 62.4,
        "lat": 41.173,
        "lon": -8.6693,
        "source": "manual"
      }
    },
    {
      "type": "Feature",
      "geometry": {
        "type": "Polygon",
        "coordinates": [
          [
            [
              -8.615546875,
              41.17330299089727
            ],
            [
              -8.616562499999999,
              41.17330299089727
            ],
            [
              -8.616171875,
              41.17221066319896
            ],
            [
              -8.61515625,
              41.17182054616385
            ],
            [
              -8.614765624999999,
              41.17244473342002
            ],
            [
              -8.61390625,
              41.17213263979194
            ],
            [
              -8.613828125,
              41.17182054616385
            ],
            [
              -8.612890624999999,
              41.17205461638491
            ],
            [
              -8.61390625,
              41.17221066319896
            ],
            [
              -8.614140625,
              41.17345903771131
            ],
            [
              -8.615078124999998,
              41.17338101430429
            ],
            [
              -8.614453124999999,
              41.17314694408322
            ],
            [
              -8.614609374999999,
              41.17267880364109
            ],
            [
              -8.615546875,
              41.17275682704811
            ],
            [
              -8.615546875,
              41.17330299089727
            ]
          ]
        ]
      },
      "properties": {
        "rank": 12,
        "tipo": "Estrategia de expansao (CMP)",
        "nome": "Corredor Verde da Charca de Salgueiros",
        "area_ha": 2.27,
        "pop_delta": 1129,
        "pct_antes": 62.4,
        "pct_depois": 62.9,
        "lat": 41.1727,
        "lon": -8.6151,
        "source": "manual"
      }
    },
    {
      "type": "Feature",
      "geometry": {
        "type": "Polygon",
        "coordinates": [
          [
            [
              -8.575703124999999,
              41.17423927178153
            ],
            [
              -8.575937499999998,
              41.17322496749025
            ],
            [
              -8.578046874999998,
              41.17143042912874
            ],
            [
              -8.577890624999998,
              41.17127438231469
            ],
            [
              -8.578359375,
              41.17119635890767
            ],
            [
              -8.579609374999999,
              41.17182054616385
            ],
            [
              -8.58015625,
              41.17127438231469
            ],
            [
              -8.577578124999999,
              41.17057217165149
            ],
            [
              -8.577421874999999,
              41.17088426527958
            ],
            [
              -8.577812499999999,
              41.17111833550065
            ],
            [
              -8.575468749999999,
              41.17314694408322
            ],
            [
              -8.575234374999999,
              41.17408322496749
            ],
            [
              -8.574453125,
              41.17353706111833
            ],
            [
              -8.574062499999998,
              41.17392717815345
            ],
            [
              -8.57453125,
              41.17408322496749
            ],
            [
              -8.574609375,
              41.1737711313394
            ],
            [
              -8.57484375,
              41.17416124837451
            ],
            [
              -8.575703124999999,
              41.17423927178153
            ]
          ]
        ]
      },
      "properties": {
        "rank": 13,
        "tipo": "Estrategia de expansao (CMP)",
        "nome": "Jardim frontal à Escola Nicolau Nasoni",
        "area_ha": 2.99,
        "pop_delta": 1520,
        "pct_antes": 62.9,
        "pct_depois": 63.5,
        "lat": 41.1722,
        "lon": -8.5773,
        "source": "manual"
      }
    },
    {
      "type": "Feature",
      "geometry": {
        "type": "Polygon",
        "coordinates": [
          [
            [
              -8.6803125,
              41.16433029908973
            ],
            [
              -8.681171874999999,
              41.16378413524057
            ],
            [
              -8.681875,
              41.164252275682706
            ],
            [
              -8.682578125,
              41.16370611183355
            ],
            [
              -8.681953125,
              41.16308192457738
            ],
            [
              -8.681015624999999,
              41.16355006501951
            ],
            [
              -8.68046875,
              41.16300390117035
            ],
            [
              -8.67953125,
              41.16362808842653
            ],
            [
              -8.6803125,
              41.16433029908973
            ]
          ]
        ]
      },
      "properties": {
        "rank": 14,
        "tipo": "Estrategia de expansao (CMP)",
        "nome": "Jardim Nun'Alvares",
        "area_ha": 2.0,
        "pop_delta": 739,
        "pct_antes": 63.5,
        "pct_depois": 63.8,
        "lat": 41.1637,
        "lon": -8.6811,
        "source": "manual"
      }
    },
    {
      "type": "Feature",
      "geometry": {
        "type": "Polygon",
        "coordinates": [
          [
            [
              -8.665078124999999,
              41.168465539661895
            ],
            [
              -8.665078124999999,
              41.167685305591675
            ],
            [
              -8.66640625,
              41.16745123537061
            ],
            [
              -8.665781249999998,
              41.166827048114435
            ],
            [
              -8.664921875,
              41.167295188556565
            ],
            [
              -8.665312499999999,
              41.166749024707414
            ],
            [
              -8.664765625,
              41.166436931079325
            ],
            [
              -8.6640625,
              41.1670611183355
            ],
            [
              -8.664296875,
              41.167529258777634
            ],
            [
              -8.6640625,
              41.16784135240572
            ],
            [
              -8.665078124999999,
              41.168465539661895
            ]
          ],
          [
            [
              -8.664765625,
              41.168075422626785
            ],
            [
              -8.6646875,
              41.16815344603381
            ],
            [
              -8.6646875,
              41.168075422626785
            ],
            [
              -8.664765625,
              41.168075422626785
            ]
          ],
          [
            [
              -8.665,
              41.167763328998696
            ],
            [
              -8.664765625,
              41.167685305591675
            ],
            [
              -8.664765625,
              41.16745123537061
            ],
            [
              -8.664921875,
              41.16745123537061
            ],
            [
              -8.665,
              41.167763328998696
            ]
          ],
          [
            [
              -8.664765625,
              41.167373211963586
            ],
            [
              -8.66453125,
              41.167217165149545
            ],
            [
              -8.66453125,
              41.166983094928476
            ],
            [
              -8.6646875,
              41.166983094928476
            ],
            [
              -8.664765625,
              41.167373211963586
            ]
          ],
          [
            [
              -8.66453125,
              41.166827048114435
            ],
            [
              -8.664453125,
              41.166983094928476
            ],
            [
              -8.664453125,
              41.166827048114435
            ],
            [
              -8.66453125,
              41.166827048114435
            ]
          ]
        ]
      },
      "properties": {
        "rank": 15,
        "tipo": "Estrategia de expansao (CMP)",
        "nome": "Jardim da Vilarinha",
        "area_ha": 2.0,
        "pop_delta": 1158,
        "pct_antes": 63.8,
        "pct_depois": 64.3,
        "lat": 41.1674,
        "lon": -8.665,
        "source": "manual"
      }
    },
    {
      "type": "Feature",
      "geometry": {
        "type": "Polygon",
        "coordinates": [
          [
            [
              -8.57625,
              41.154889466840054
            ],
            [
              -8.577187499999999,
              41.154655396618985
            ],
            [
              -8.57703125,
              41.153797139141744
            ],
            [
              -8.577578124999999,
              41.153719115734724
            ],
            [
              -8.577499999999999,
              41.153407022106634
            ],
            [
              -8.576875,
              41.153016905071524
            ],
            [
              -8.576953125,
              41.153407022106634
            ],
            [
              -8.576328125,
              41.153641092327696
            ],
            [
              -8.575468749999999,
              41.153172951885566
            ],
            [
              -8.575078125,
              41.153719115734724
            ],
            [
              -8.57515625,
              41.154343302990895
            ],
            [
              -8.575390624999999,
              41.154499349804944
            ],
            [
              -8.575390624999999,
              41.153875162548765
            ],
            [
              -8.576093749999998,
              41.154031209362806
            ],
            [
              -8.57625,
              41.154889466840054
            ]
          ]
        ]
      },
      "properties": {
        "rank": 16,
        "tipo": "Estrategia de expansao (CMP)",
        "nome": "Jardim Monte da Bela",
        "area_ha": 2.0,
        "pop_delta": 0,
        "pct_antes": 64.3,
        "pct_depois": 64.3,
        "lat": 41.154,
        "lon": -8.5764,
        "source": "manual"
      }
    },
    {
      "type": "Feature",
      "geometry": {
        "type": "Polygon",
        "coordinates": [
          [
            [
              -8.599191968290402,
              41.17784059634788
            ],
            [
              -8.599541929634327,
              41.17715847672059
            ],
            [
              -8.59930190177373,
              41.17692138260244
            ],
            [
              -8.598165843542011,
              41.17653591476945
            ],
            [
              -8.598022124209198,
              41.17667686905953
            ],
            [
              -8.597784344307899,
              41.17672366950518
            ],
            [
              -8.59773179179186,
              41.17738938428856
            ],
            [
              -8.599191968290402,
              41.17784059634788
            ]
          ]
        ]
      },
      "properties": {
        "rank": 18,
        "tipo": "Verde pago ou nao usufruivel",
        "nome": "Parque da Quinta de Lamas",
        "area_ha": 1.4,
        "pop_delta": 13913,
        "pct_antes": 64.7,
        "pct_depois": 70.4,
        "lat": 41.1728,
        "lon": -8.6007,
        "source": "manual",
        "label_lat": 41.177274,
        "label_lon": -8.598612
      }
    },
    {
      "type": "Feature",
      "geometry": {
        "type": "MultiPolygon",
        "coordinates": [
          [
            [
              [
                -8.626640624999999,
                41.16300390117035
              ],
              [
                -8.625625,
                41.16323797139142
              ],
              [
                -8.625,
                41.16253576072822
              ],
              [
                -8.626249999999999,
                41.16222366710013
              ],
              [
                -8.626640624999999,
                41.16300390117035
              ]
            ],
            [
              [
                -8.6259375,
                41.16284785435631
              ],
              [
                -8.626093749999999,
                41.16292587776333
              ],
              [
                -8.626093749999999,
                41.16284785435631
              ],
              [
                -8.6259375,
                41.16284785435631
              ]
            ]
          ],
          [
            [
              [
                -8.625234375,
                41.16308192457738
              ],
              [
                -8.624765624999998,
                41.1631599479844
              ],
              [
                -8.624921875,
                41.16276983094929
              ],
              [
                -8.625234375,
                41.16308192457738
              ]
            ]
          ],
          [
            [
              [
                -8.626640624999999,
                41.16331599479844
              ],
              [
                -8.626718749999998,
                41.1631599479844
              ],
              [
                -8.626718749999998,
                41.16331599479844
              ],
              [
                -8.626640624999999,
                41.16331599479844
              ]
            ]
          ]
        ]
      },
      "properties": {
        "rank": 20,
        "tipo": "Verde pago ou nao usufruivel",
        "nome": "",
        "area_ha": 1.03,
        "pop_delta": 3685,
        "pct_antes": 75.6,
        "pct_depois": 77.1,
        "lat": 41.1629,
        "lon": -8.6258,
        "source": "manual"
      }
    },
    {
      "type": "Feature",
      "geometry": {
        "type": "Polygon",
        "coordinates": [
          [
            [
              -8.618359374999999,
              41.16222366710013
            ],
            [
              -8.618437499999999,
              41.16113133940182
            ],
            [
              -8.618125,
              41.16128738621587
            ],
            [
              -8.618359374999999,
              41.16097529258778
            ],
            [
              -8.617890625,
              41.16089726918075
            ],
            [
              -8.61765625,
              41.16222366710013
            ],
            [
              -8.618359374999999,
              41.16222366710013
            ]
          ],
          [
            [
              -8.618046875,
              41.16128738621587
            ],
            [
              -8.61796875,
              41.16136540962289
            ],
            [
              -8.61796875,
              41.16128738621587
            ],
            [
              -8.618046875,
              41.16128738621587
            ]
          ]
        ]
      },
      "properties": {
        "rank": 21,
        "tipo": "Verde pago ou nao usufruivel",
        "nome": "",
        "area_ha": 0.59,
        "pop_delta": 3051,
        "pct_antes": 77.1,
        "pct_depois": 78.4,
        "lat": 41.1617,
        "lon": -8.6181,
        "source": "manual"
      }
    },
    {
      "type": "Feature",
      "geometry": {
        "type": "Polygon",
        "coordinates": [
          [
            [
              -8.682871636149631,
              41.16315844274048
            ],
            [
              -8.68326949971826,
              41.16493778745477
            ],
            [
              -8.681866323661135,
              41.1653269914149
            ],
            [
              -8.679962789873999,
              41.16512914648025
            ],
            [
              -8.680043027660695,
              41.16475568086499
            ],
            [
              -8.679682949062046,
              41.16445000615618
            ],
            [
              -8.67905881131676,
              41.16450494928131
            ],
            [
              -8.678509845978052,
              41.16411520882859
            ],
            [
              -8.67845853075858,
              41.16355420569773
            ],
            [
              -8.677271178059279,
              41.16355557418618
            ],
            [
              -8.677197622251663,
              41.162913244301
            ],
            [
              -8.677992883966704,
              41.16281710899072
            ],
            [
              -8.679777112250504,
              41.16228384650748
            ],
            [
              -8.680295049269786,
              41.16292400553838
            ],
            [
              -8.681192263627246,
              41.16267001912446
            ],
            [
              -8.681507618191317,
              41.16330438831539
            ],
            [
              -8.681015624999999,
              41.16355006501951
            ],
            [
              -8.68046875,
              41.16300390117035
            ],
            [
              -8.67953125,
              41.16362808842653
            ],
            [
              -8.6803125,
              41.16433029908973
            ],
            [
              -8.681171874999999,
              41.16378413524057
            ],
            [
              -8.681875,
              41.164252275682706
            ],
            [
              -8.682578125,
              41.16370611183355
            ],
            [
              -8.682127218112278,
              41.16325579130069
            ],
            [
              -8.682871636149631,
              41.16315844274048
            ]
          ]
        ]
      },
      "properties": {
        "rank": 24,
        "tipo": "Verde privado",
        "nome": "Jardim Nun'Álvares",
        "area_ha": 7.968,
        "pop_delta": 0,
        "pct_antes": 80.5,
        "pct_depois": 80.5,
        "lat": 41.16389,
        "lon": -8.68042,
        "label_lat": 41.16395,
        "label_lon": -8.67919,
        "source": "manual"
      }
    },
    {
      "type": "Feature",
      "geometry": {
        "type": "Polygon",
        "coordinates": [
          [
            [
              -8.672045591025952,
              41.15762277529491
            ],
            [
              -8.672749378307374,
              41.15740787882346
            ],
            [
              -8.67301616775319,
              41.15685931607706
            ],
            [
              -8.67323975882178,
              41.15616330826508
            ],
            [
              -8.67360416285381,
              41.15622250938827
            ],
            [
              -8.674380877758443,
              41.15743070185327
            ],
            [
              -8.672483736170607,
              41.15819226281782
            ],
            [
              -8.672045591025952,
              41.15762277529491
            ]
          ]
        ]
      },
      "properties": {
        "rank": 25,
        "tipo": "Verde privado",
        "nome": "Parque da Ervilha",
        "area_ha": 1.938,
        "pop_delta": 0,
        "pct_antes": 80.5,
        "pct_depois": 80.5,
        "lat": 41.15726,
        "lon": -8.67329,
        "source": "manual"
      }
    },
    {
      "type": "Feature",
      "geometry": {
        "type": "MultiPolygon",
        "coordinates": [
          [
            [
              [
                -8.646045642947138,
                41.15106700755675
              ],
              [
                -8.646033120208124,
                41.15013726574857
              ],
              [
                -8.64665849880533,
                41.15004871795042
              ],
              [
                -8.646459529899909,
                41.14941351404227
              ],
              [
                -8.64653988130183,
                41.14901116595694
              ],
              [
                -8.646460489395132,
                41.14867038531935
              ],
              [
                -8.646732401424101,
                41.148660021731814
              ],
              [
                -8.646674382121963,
                41.15065636192593
              ],
              [
                -8.646541180125904,
                41.15121513280552
              ],
              [
                -8.646045642947138,
                41.15106700755675
              ]
            ]
          ],
          [
            [
              [
                -8.647742701301173,
                41.14862151541325
              ],
              [
                -8.647827122585566,
                41.14926423630927
              ],
              [
                -8.648620668584577,
                41.14920273234372
              ],
              [
                -8.648868145777847,
                41.14982373026429
              ],
              [
                -8.648962244259152,
                41.15030015872341
              ],
              [
                -8.648136241417427,
                41.15039355193554
              ],
              [
                -8.647614929231668,
                41.15059985172984
              ],
              [
                -8.647517001545198,
                41.15081383776001
              ],
              [
                -8.647545015682878,
                41.15105499792123
              ],
              [
                -8.647361261480505,
                41.15139948791232
              ],
              [
                -8.647325950199235,
                41.15202423194837
              ],
              [
                -8.64685223384717,
                41.15197022385941
              ],
              [
                -8.646735728222215,
                41.151553568006705
              ],
              [
                -8.64707330232934,
                41.15157089435844
              ],
              [
                -8.647242708158585,
                41.1508813549767
              ],
              [
                -8.647304773091278,
                41.14971847614806
              ],
              [
                -8.647481658268244,
                41.14863226652681
              ],
              [
                -8.647424505335826,
                41.148633643055234
              ],
              [
                -8.647742701301173,
                41.14862151541325
              ]
            ]
          ]
        ]
      },
      "properties": {
        "rank": 26,
        "tipo": "Verde privado",
        "nome": "Corredor ribeirinho do Aleixo",
        "area_ha": 3.256,
        "pop_delta": 0,
        "pct_antes": 80.5,
        "pct_depois": 80.5,
        "lat": 41.15013,
        "lon": -8.64747,
        "source": "manual"
      }
    },
    {
      "type": "Feature",
      "geometry": {
        "type": "MultiPolygon",
        "coordinates": [
          [
            [
              [
                -8.66862653879617,
                41.152006265580326
              ],
              [
                -8.668709028699677,
                41.15204867699948
              ],
              [
                -8.6687204892939,
                41.152054569278484
              ],
              [
                -8.668756332971599,
                41.152072997476374
              ],
              [
                -8.668814886792152,
                41.152103034699614
              ],
              [
                -8.668817680134659,
                41.152104466905875
              ],
              [
                -8.668895923848583,
                41.15214460453134
              ],
              [
                -8.668965244463303,
                41.15218016348472
              ],
              [
                -8.66914779697658,
                41.15228604890021
              ],
              [
                -8.66915067925411,
                41.15228772110045
              ],
              [
                -8.669343335034906,
                41.152395995761744
              ],
              [
                -8.669453211556268,
                41.1524582786955
              ],
              [
                -8.669362414835263,
                41.15228969800798
              ],
              [
                -8.669354867750387,
                41.15224537864708
              ],
              [
                -8.66935206662214,
                41.15220074274945
              ],
              [
                -8.669354031672285,
                41.15215608016116
              ],
              [
                -8.669359950636276,
                41.15211565641928
              ],
              [
                -8.669375169409403,
                41.15206930504315
              ],
              [
                -8.669393966243552,
                41.1520262452023
              ],
              [
                -8.669394967303486,
                41.15202395163751
              ],
              [
                -8.66940537283951,
                41.152005039091755
              ],
              [
                -8.669390253586302,
                41.15198202684712
              ],
              [
                -8.669375777278413,
                41.15195999308064
              ],
              [
                -8.669353695539037,
                41.15192638451712
              ],
              [
                -8.669321268977187,
                41.15187703048575
              ],
              [
                -8.669312380088991,
                41.15186350141662
              ],
              [
                -8.669283992120315,
                41.15182029384899
              ],
              [
                -8.669274588165443,
                41.15180597929416
              ],
              [
                -8.66925427488454,
                41.151775061080976
              ],
              [
                -8.6692542411188,
                41.15177501081379
              ],
              [
                -8.669245734637306,
                41.151762063440856
              ],
              [
                -8.669235664856215,
                41.15174673629164
              ],
              [
                -8.669206336117144,
                41.15170209688956
              ],
              [
                -8.669198272343223,
                41.15168982277836
              ],
              [
                -8.669167297119763,
                41.1516426761151
              ],
              [
                -8.669114097901709,
                41.15165952768737
              ],
              [
                -8.669081902107964,
                41.15159795271607
              ],
              [
                -8.6690816165229,
                41.15159740748118
              ],
              [
                -8.669075570663896,
                41.15158584431939
              ],
              [
                -8.6690752689824,
                41.15158595557608
              ],
              [
                -8.66906927336937,
                41.151588167926924
              ],
              [
                -8.668883052875424,
                41.15165688557048
              ],
              [
                -8.668849363106638,
                41.15166931698702
              ],
              [
                -8.668618604797937,
                41.151754468966566
              ],
              [
                -8.668602498826404,
                41.15174162350736
              ],
              [
                -8.66858650078409,
                41.15172886488627
              ],
              [
                -8.668521448329551,
                41.15167825761144
              ],
              [
                -8.66851202263651,
                41.15167354802907
              ],
              [
                -8.66847940181694,
                41.151659968021036
              ],
              [
                -8.668446102061234,
                41.15164610572131
              ],
              [
                -8.668441735490775,
                41.151644288227864
              ],
              [
                -8.668391350456425,
                41.15166369622786
              ],
              [
                -8.66839087304753,
                41.15166387943367
              ],
              [
                -8.668351204624916,
                41.15167915954821
              ],
              [
                -8.668314240306142,
                41.15169530500864
              ],
              [
                -8.668279914956676,
                41.15171441413242
              ],
              [
                -8.668277678505667,
                41.151715976871934
              ],
              [
                -8.668250813703555,
                41.15169385915025
              ],
              [
                -8.66816672579309,
                41.15162462997883
              ],
              [
                -8.66815983930699,
                41.15161896041541
              ],
              [
                -8.668150827227826,
                41.15162379979061
              ],
              [
                -8.668040217927928,
                41.151543736324
              ],
              [
                -8.667997023212562,
                41.151510201229996
              ],
              [
                -8.66799464707753,
                41.15150835556772
              ],
              [
                -8.667854012187654,
                41.15139916811949
              ],
              [
                -8.667795173288493,
                41.151352679886784
              ],
              [
                -8.667768245946466,
                41.151337195842125
              ],
              [
                -8.667766967688639,
                41.151336461618044
              ],
              [
                -8.667760388453447,
                41.151332677914986
              ],
              [
                -8.667622405490613,
                41.15125523979864
              ],
              [
                -8.667538760857703,
                41.15121638696559
              ],
              [
                -8.66750638355114,
                41.151201347746955
              ],
              [
                -8.667501361194125,
                41.151220577315826
              ],
              [
                -8.667499491801786,
                41.15122773273734
              ],
              [
                -8.667490440877353,
                41.15123703029283
              ],
              [
                -8.667490345176649,
                41.15123712798374
              ],
              [
                -8.667483016767681,
                41.15124465539725
              ],
              [
                -8.667400779734319,
                41.15132913115411
              ],
              [
                -8.667373066856138,
                41.15135759726815
              ],
              [
                -8.66731301455383,
                41.15141737739598
              ],
              [
                -8.667367145281995,
                41.15143907623881
              ],
              [
                -8.667367598254023,
                41.15143925782655
              ],
              [
                -8.667475087730077,
                41.15148234566511
              ],
              [
                -8.667620428531002,
                41.15154307916815
              ],
              [
                -8.667666456543321,
                41.15156231316064
              ],
              [
                -8.667695407090632,
                41.15157461110599
              ],
              [
                -8.667715984969476,
                41.151583353368295
              ],
              [
                -8.667767049532037,
                41.151605045542546
              ],
              [
                -8.667806751693957,
                41.15162191098316
              ],
              [
                -8.667899504511551,
                41.151661654181815
              ],
              [
                -8.667942160711402,
                41.15167993214896
              ],
              [
                -8.667943111096612,
                41.15168033923479
              ],
              [
                -8.667984675870064,
                41.15169814952558
              ],
              [
                -8.668184816612106,
                41.15179164316904
              ],
              [
                -8.668239450777289,
                41.151817165207035
              ],
              [
                -8.668452404528116,
                41.15191899360715
              ],
              [
                -8.668453555023415,
                41.15191954292781
              ],
              [
                -8.668515140396096,
                41.15194899173824
              ],
              [
                -8.66862653879617,
                41.152006265580326
              ]
            ]
          ]
        ]
      },
      "properties": {
        "rank": 27,
        "tipo": "Parques e Jardins já existentes",
        "nome": "Jardim Botânico do Porto",
        "area_ha": 0.615,
        "pop_delta": 0,
        "pct_antes": 80.5,
        "pct_depois": 80.5,
        "lat": 41.1518,
        "lon": -8.66859,
        "source": "manual"
      }
    },
    {
      "type": "Feature",
      "geometry": {
        "type": "Polygon",
        "coordinates": [
          [
            [
              -8.632553536391848,
              41.15012231088719
            ],
            [
              -8.633266095250665,
              41.15031082596831
            ],
            [
              -8.633419763049142,
              41.15052130582398
            ],
            [
              -8.633127866301859,
              41.1510850154253
            ],
            [
              -8.633753680923183,
              41.15105502857728
            ],
            [
              -8.63609127308775,
              41.15089623751307
            ],
            [
              -8.636185354647841,
              41.15065557081259
            ],
            [
              -8.635526823253366,
              41.15058460060177
            ],
            [
              -8.635320327530286,
              41.14997273441507
            ],
            [
              -8.634665416440606,
              41.14976136763843
            ],
            [
              -8.63435720548436,
              41.14964576915727
            ],
            [
              -8.633680881372944,
              41.14950164241618
            ],
            [
              -8.63354726302449,
              41.1492433726004
            ],
            [
              -8.633007266552582,
              41.1491603279891
            ],
            [
              -8.632663057921434,
              41.14972871432375
            ],
            [
              -8.631056793332316,
              41.1494779165083
            ],
            [
              -8.631009902307213,
              41.14975416196544
            ],
            [
              -8.630775161948282,
              41.15024574509945
            ],
            [
              -8.631159148823599,
              41.15008751566169
            ],
            [
              -8.63130195060202,
              41.14982775526111
            ],
            [
              -8.631643444985192,
              41.14987994612419
            ],
            [
              -8.63214121426244,
              41.15018296242111
            ],
            [
              -8.632553536391848,
              41.15012231088719
            ]
          ]
        ]
      },
      "properties": {
        "rank": 28,
        "tipo": "Verde pago ou nao usufruivel",
        "nome": "Jardins da FLUP",
        "area_ha": 4.158,
        "pop_delta": 0,
        "pct_antes": 80.5,
        "pct_depois": 80.5,
        "lat": 41.15019,
        "lon": -8.63374,
        "source": "manual"
      }
    },
    {
      "type": "Feature",
      "geometry": {
        "type": "Polygon",
        "coordinates": [
          [
            [
              -8.6436231,
              41.1563019
            ],
            [
              -8.6425244,
              41.156116
            ],
            [
              -8.6426139,
              41.1558326
            ],
            [
              -8.6426595,
              41.1558074
            ],
            [
              -8.6426729,
              41.1557589
            ],
            [
              -8.6426447,
              41.1557326
            ],
            [
              -8.6427493,
              41.1553762
            ],
            [
              -8.642974,
              41.1554106
            ],
            [
              -8.6430232,
              41.155419
            ],
            [
              -8.6431356,
              41.155438
            ],
            [
              -8.6432571,
              41.1554586
            ],
            [
              -8.6435996,
              41.1555165
            ],
            [
              -8.6436945,
              41.1555337
            ],
            [
              -8.6436231,
              41.1563019
            ]
          ]
        ]
      },
      "properties": {
        "rank": 29,
        "tipo": "Verde pago ou nao usufruivel",
        "nome": "Casa das Artes",
        "area_ha": 0.74,
        "pop_delta": 0,
        "pct_antes": 80.5,
        "pct_depois": 80.5,
        "lat": 41.15584,
        "lon": -8.64315,
        "source": "manual"
      }
    },
    {
      "type": "Feature",
      "geometry": {
        "type": "Polygon",
        "coordinates": [
          [
            [
              -8.646732683803076,
              41.14865030557741
            ],
            [
              -8.646674382121963,
              41.15065636192593
            ],
            [
              -8.64646382938046,
              41.15153961250813
            ],
            [
              -8.64707330232934,
              41.15157089435844
            ],
            [
              -8.647242708158585,
              41.1508813549767
            ],
            [
              -8.647304773091278,
              41.14971847614806
            ],
            [
              -8.647481658268244,
              41.14863226652681
            ],
            [
              -8.646732683803076,
              41.14865030557741
            ]
          ]
        ]
      },
      "properties": {
        "rank": 30,
        "tipo": "Estrategia de expansao (CMP)",
        "nome": "Corredor ribeirinho do Aleixo",
        "area_ha": 1.712,
        "pop_delta": 0,
        "pct_antes": 80.5,
        "pct_depois": 80.5,
        "lat": 41.15006,
        "lon": -8.64698,
        "source": "manual"
      }
    },
    {
      "type": "Feature",
      "geometry": {
        "type": "Polygon",
        "coordinates": [
          [
            [
              -8.628726738030304,
              41.14591208623339
            ],
            [
              -8.62808896592161,
              41.14528756756857
            ],
            [
              -8.627623812213157,
              41.1453273825751
            ],
            [
              -8.627973952620515,
              41.14605398051809
            ],
            [
              -8.628039510670284,
              41.14681005275619
            ],
            [
              -8.629017652173848,
              41.14677580099281
            ],
            [
              -8.62905543779667,
              41.14638316204339
            ],
            [
              -8.628846178632482,
              41.14627068355459
            ],
            [
              -8.628726738030304,
              41.14591208623339
            ]
          ]
        ]
      },
      "properties": {
        "rank": 31,
        "tipo": "Verde privado",
        "nome": "",
        "area_ha": 1.134,
        "pop_delta": 0,
        "pct_antes": 80.5,
        "pct_depois": 80.5,
        "lat": 41.14613,
        "lon": -8.62835,
        "source": "manual"
      }
    },
    {
      "type": "Feature",
      "geometry": {
        "type": "Polygon",
        "coordinates": [
          [
            [
              -8.667653270179736,
              41.17462099208306
            ],
            [
              -8.667259785119011,
              41.17412376885673
            ],
            [
              -8.667780231217488,
              41.17228279409544
            ],
            [
              -8.668576929952518,
              41.17222223005784
            ],
            [
              -8.668359375,
              41.17338101430429
            ],
            [
              -8.667656249999999,
              41.17455136540962
            ],
            [
              -8.668203125,
              41.17369310793238
            ],
            [
              -8.668343571316987,
              41.173750488529556
            ],
            [
              -8.667653270179736,
              41.17462099208306
            ]
          ]
        ]
      },
      "properties": {
        "rank": 32,
        "tipo": "Verde privado",
        "nome": "Parque Urbano de Aldoar",
        "area_ha": 1.65,
        "pop_delta": 0,
        "pct_antes": 80.5,
        "pct_depois": 80.5,
        "lat": 41.17332,
        "lon": -8.66791,
        "source": "manual"
      }
    },
    {
      "type": "Feature",
      "geometry": {
        "type": "MultiPolygon",
        "coordinates": [
          [
            [
              [
                -8.634510446901496,
                41.17946114434194
              ],
              [
                -8.6348179009332,
                41.17840995145172
              ],
              [
                -8.636489280512194,
                41.17882349186899
              ],
              [
                -8.6363652,
                41.179032
              ],
              [
                -8.6362874,
                41.1791652
              ],
              [
                -8.636282,
                41.1792318
              ],
              [
                -8.6361828,
                41.1792298
              ],
              [
                -8.6360326,
                41.1792581
              ],
              [
                -8.6352432,
                41.1795866
              ],
              [
                -8.6347954,
                41.1796208
              ],
              [
                -8.634383666632324,
                41.179551178575686
              ],
              [
                -8.634510446901496,
                41.17946114434194
              ]
            ]
          ],
          [
            [
              [
                -8.63425665618877,
                41.17964137626999
              ],
              [
                -8.634282288874958,
                41.1796231729701
              ],
              [
                -8.6342677,
                41.1796356
              ],
              [
                -8.634255257319998,
                41.17965796075826
              ],
              [
                -8.63425665618877,
                41.17964137626999
              ]
            ]
          ],
          [
            [
              [
                -8.634237167269742,
                41.17987242992949
              ],
              [
                -8.634241170720825,
                41.1798249664441
              ],
              [
                -8.6342757,
                41.1798718
              ],
              [
                -8.6343562,
                41.1799263
              ],
              [
                -8.634395031505404,
                41.1799681829038
              ],
              [
                -8.634237167269742,
                41.17987242992949
              ]
            ]
          ],
          [
            [
              [
                -8.636426231355392,
                41.18012000278683
              ],
              [
                -8.63556884207417,
                41.18068016084336
              ],
              [
                -8.634754430539383,
                41.180186177348986
              ],
              [
                -8.634847,
                41.1801625
              ],
              [
                -8.6348336,
                41.1801443
              ],
              [
                -8.6348658,
                41.1801342
              ],
              [
                -8.6351126,
                41.1801827
              ],
              [
                -8.635472,
                41.1801827
              ],
              [
                -8.6354961,
                41.1802796
              ],
              [
                -8.6356946,
                41.1801685
              ],
              [
                -8.6359172,
                41.180114
              ],
              [
                -8.6359145,
                41.1800737
              ],
              [
                -8.6362664,
                41.1799528
              ],
              [
                -8.63645,
                41.1798898
              ],
              [
                -8.6364691,
                41.1798832
              ],
              [
                -8.63651780877632,
                41.179864876859455
              ],
              [
                -8.636426231355392,
                41.18012000278683
              ]
            ]
          ]
        ]
      },
      "properties": {
        "rank": 33,
        "tipo": "Verde privado",
        "nome": "Parque de Requesende",
        "area_ha": 1.877,
        "pop_delta": 0,
        "pct_antes": 80.5,
        "pct_depois": 80.5,
        "lat": 41.17936,
        "lon": -8.63544,
        "source": "manual"
      }
    },
    {
      "type": "Feature",
      "geometry": {
        "type": "Polygon",
        "coordinates": [
          [
            [
              -8.60728245897583,
              41.18384417766006
            ],
            [
              -8.60781708920183,
              41.18381044954658
            ],
            [
              -8.60802334881403,
              41.18375377420833
            ],
            [
              -8.608154811601676,
              41.18366433221492
            ],
            [
              -8.608176676453155,
              41.18349766268496
            ],
            [
              -8.60810987385689,
              41.18331817826257
            ],
            [
              -8.607748709868815,
              41.18253234465816
            ],
            [
              -8.60825330051483,
              41.18136207986359
            ],
            [
              -8.608300486282793,
              41.18072027844685
            ],
            [
              -8.607778365762126,
              41.18092850142053
            ],
            [
              -8.607874908626469,
              41.18128979527771
            ],
            [
              -8.607482701561453,
              41.18211477734932
            ],
            [
              -8.607548012917356,
              41.18296573158904
            ],
            [
              -8.607734329450109,
              41.18321697147521
            ],
            [
              -8.607767100223043,
              41.18359870983636
            ],
            [
              -8.607443585127092,
              41.18361809008188
            ],
            [
              -8.607449049192661,
              41.183387375957
            ],
            [
              -8.606460622960519,
              41.18338147739272
            ],
            [
              -8.606413284340855,
              41.18375494708433
            ],
            [
              -8.606564673239532,
              41.18399733086877
            ],
            [
              -8.606393130867085,
              41.18432924152193
            ],
            [
              -8.607347896584052,
              41.18449721439816
            ],
            [
              -8.60728245897583,
              41.18384417766006
            ]
          ]
        ]
      },
      "properties": {
        "rank": 34,
        "tipo": "Parques e Jardins j� existentes",
        "nome": "Ribeira da Asprela",
        "area_ha": 2.01,
        "pop_delta": 0,
        "pct_antes": 0.0,
        "pct_depois": 0.0,
        "label_lat": 41.182749,
        "label_lon": -8.60769,
        "source": "manual"
      }
    },
    {
      "type": "Feature",
      "geometry": {
        "type": "MultiPolygon",
        "coordinates": [
          [
            [
              [
                -8.5908045,
                41.1719305
              ],
              [
                -8.5923619,
                41.1704743
              ],
              [
                -8.5924445,
                41.1705322
              ],
              [
                -8.5923886,
                41.1705782
              ],
              [
                -8.5926931,
                41.1707939
              ],
              [
                -8.592684909318123,
                41.17080323345292
              ],
              [
                -8.593521,
                41.1713414
              ],
              [
                -8.5934273,
                41.1713826
              ],
              [
                -8.5933763,
                41.1714417
              ],
              [
                -8.5933104,
                41.1715105
              ],
              [
                -8.5933044,
                41.1715168
              ],
              [
                -8.5929236,
                41.1719488
              ],
              [
                -8.59267,
                41.1722387
              ],
              [
                -8.59227882061085,
                41.172001871514404
              ],
              [
                -8.5917637,
                41.1724817
              ],
              [
                -8.5908045,
                41.1719305
              ]
            ]
          ],
          [
            [
              [
                -8.5933104,
                41.1715105
              ],
              [
                -8.593374,
                41.1714466
              ],
              [
                -8.5933363,
                41.1715323
              ],
              [
                -8.5933375,
                41.1715649
              ],
              [
                -8.5933528,
                41.1716129
              ],
              [
                -8.5934312,
                41.171858
              ],
              [
                -8.5934352,
                41.1718846
              ],
              [
                -8.5932878,
                41.1721364
              ],
              [
                -8.5929236,
                41.1719488
              ],
              [
                -8.5933104,
                41.1715105
              ]
            ]
          ]
        ]
      },
      "properties": {
        "rank": 35,
        "tipo": "Parques e Jardins j� existentes",
        "nome": "Horta do Parque José Avides Moreira",
        "area_ha": 2.59,
        "pop_delta": 0,
        "pct_antes": 0.0,
        "pct_depois": 0.0,
        "label_lat": 41.171476,
        "label_lon": -8.592317,
        "source": "manual"
      }
    }
  ]
}